CCSDS_OMM_VERS = 2.0
CREATION_DATE  = 
ORIGINATOR     = 

OBJECT_NAME    = SL-3 R/B
OBJECT_ID      = 1982-079B
CENTER_NAME    = EARTH
REF_FRAME      = TEME
TIME_SYSTEM    = UTC
MEAN_ELEMENT_THEORY = SGP/SGP4

EPOCH          = 2025-12-20T04:01:25.087872
MEAN_MOTION    = 15.23668339
ECCENTRICITY   = .00270771
INCLINATION    = 81.1478
RA_OF_ASC_NODE = 286.9044
ARG_OF_PERICENTER = 75.2498
MEAN_ANOMALY   = 285.1732

EPHEMERIS_TYPE = 0
CLASSIFICATION_TYPE = U
NORAD_CAT_ID   = 13403
ELEMENT_SET_NO = 999
REV_AT_EPOCH   = 36558
BSTAR          = .20006113E-3
MEAN_MOTION_DOT = .4873E-4
MEAN_MOTION_DDOT = 0

CCSDS_OMM_VERS = 2.0
CREATION_DATE  = 
ORIGINATOR     = 

OBJECT_NAME    = SL-14 R/B
OBJECT_ID      = 1982-092B
CENTER_NAME    = EARTH
REF_FRAME      = TEME
TIME_SYSTEM    = UTC
MEAN_ELEMENT_THEORY = SGP/SGP4

EPOCH          = 2025-12-20T03:54:53.667360
MEAN_MOTION    = 14.86562145
ECCENTRICITY   = .00197104
INCLINATION    = 82.5675
RA_OF_ASC_NODE = 215.7695
ARG_OF_PERICENTER = 201.2212
MEAN_ANOMALY   = 278.9930

EPHEMERIS_TYPE = 0
CLASSIFICATION_TYPE = U
NORAD_CAT_ID   = 13553
ELEMENT_SET_NO = 999
REV_AT_EPOCH   = 31711
BSTAR          = .35179098E-4
MEAN_MOTION_DOT = .337E-5
MEAN_MOTION_DDOT = 0

CCSDS_OMM_VERS = 2.0
CREATION_DATE  = 
ORIGINATOR     = 

OBJECT_NAME    = SL-3 R/B
OBJECT_ID      = 1983-010B
CENTER_NAME    = EARTH
REF_FRAME      = TEME
TIME_SYSTEM    = UTC
MEAN_ELEMENT_THEORY = SGP/SGP4

EPOCH          = 2025-12-20T00:46:51.012768
MEAN_MOTION    = 15.43642402
ECCENTRICITY   = .00167737
INCLINATION    = 81.1051
RA_OF_ASC_NODE = 99.7165
ARG_OF_PERICENTER = 325.3229
MEAN_ANOMALY   = 34.6919

EPHEMERIS_TYPE = 0
CLASSIFICATION_TYPE = U
NORAD_CAT_ID   = 13819
ELEMENT_SET_NO = 999
REV_AT_EPOCH   = 34564
BSTAR          = .21902527E-3
MEAN_MOTION_DOT = .9943E-4
MEAN_MOTION_DDOT = 0

CCSDS_OMM_VERS = 2.0
CREATION_DATE  = 
ORIGINATOR     = 

OBJECT_NAME    = SL-3 R/B
OBJECT_ID      = 1983-075B
CENTER_NAME    = EARTH
REF_FRAME      = TEME
TIME_SYSTEM    = UTC
MEAN_ELEMENT_THEORY = SGP/SGP4

EPOCH          = 2025-12-20T03:32:50.814240
MEAN_MOTION    = 15.36274244
ECCENTRICITY   = .00235493
INCLINATION    = 97.6099
RA_OF_ASC_NODE = 350.8805
ARG_OF_PERICENTER = 149.5393
MEAN_ANOMALY   = 210.7224

EPHEMERIS_TYPE = 0
CLASSIFICATION_TYPE = U
NORAD_CAT_ID   = 14208
ELEMENT_SET_NO = 999
REV_AT_EPOCH   = 31793
BSTAR          = .20455425E-3
MEAN_MOTION_DOT = .7211E-4
MEAN_MOTION_DDOT = 0

CCSDS_OMM_VERS = 2.0
CREATION_DATE  = 
ORIGINATOR     = 

OBJECT_NAME    = COSMOS 1536
OBJECT_ID      = 1984-013A
CENTER_NAME    = EARTH
REF_FRAME      = TEME
TIME_SYSTEM    = UTC
MEAN_ELEMENT_THEORY = SGP/SGP4

EPOCH          = 2025-12-20T00:51:19.772928
MEAN_MOTION    = 15.22596433
ECCENTRICITY   = .00140446
INCLINATION    = 82.5438
RA_OF_ASC_NODE = 186.9280
ARG_OF_PERICENTER = 198.0928
MEAN_ANOMALY   = 161.9811

EPHEMERIS_TYPE = 0
CLASSIFICATION_TYPE = U
NORAD_CAT_ID   = 14699
ELEMENT_SET_NO = 999
REV_AT_EPOCH   = 26049
BSTAR          = .20275478E-3
MEAN_MOTION_DOT = .4754E-4
MEAN_MOTION_DDOT = 0

CCSDS_OMM_VERS = 2.0
CREATION_DATE  = 
ORIGINATOR     = 

OBJECT_NAME    = SL-14 R/B
OBJECT_ID      = 1984-027B
CENTER_NAME    = EARTH
REF_FRAME      = TEME
TIME_SYSTEM    = UTC
MEAN_ELEMENT_THEORY = SGP/SGP4

EPOCH          = 2025-12-19T23:06:55.401408
MEAN_MOTION    = 14.85881537
ECCENTRICITY   = .0016579
INCLINATION    = 82.5416
RA_OF_ASC_NODE = 319.7817
ARG_OF_PERICENTER = 234.6897
MEAN_ANOMALY   = 125.2770

EPHEMERIS_TYPE = 0
CLASSIFICATION_TYPE = U
NORAD_CAT_ID   = 14820
ELEMENT_SET_NO = 999
REV_AT_EPOCH   = 23579
BSTAR          = .39705E-4
MEAN_MOTION_DOT = .371E-5
MEAN_MOTION_DDOT = 0

CCSDS_OMM_VERS = 2.0
CREATION_DATE  = 
ORIGINATOR     = 

OBJECT_NAME    = SL-8 R/B
OBJECT_ID      = 1985-006B
CENTER_NAME    = EARTH
REF_FRAME      = TEME
TIME_SYSTEM    = UTC
MEAN_ELEMENT_THEORY = SGP/SGP4

EPOCH          = 2025-12-20T04:41:35.531232
MEAN_MOTION    = 14.37725175
ECCENTRICITY   = .00190255
INCLINATION    = 74.0463
RA_OF_ASC_NODE = 47.4177
ARG_OF_PERICENTER = 337.9785
MEAN_ANOMALY   = 77.3273

EPHEMERIS_TYPE = 0
CLASSIFICATION_TYPE = U
NORAD_CAT_ID   = 15483
ELEMENT_SET_NO = 999
REV_AT_EPOCH   = 14260
BSTAR          = .72808956E-4
MEAN_MOTION_DOT = .193E-5
MEAN_MOTION_DDOT = 0

CCSDS_OMM_VERS = 2.0
CREATION_DATE  = 
ORIGINATOR     = 

OBJECT_NAME    = SL-12 R/B(2)
OBJECT_ID      = 1985-042D
CENTER_NAME    = EARTH
REF_FRAME      = TEME
TIME_SYSTEM    = UTC
MEAN_ELEMENT_THEORY = SGP/SGP4

EPOCH          = 2025-12-20T03:23:51.592704
MEAN_MOTION    = 14.21954081
ECCENTRICITY   = .00374311
INCLINATION    = 71.1076
RA_OF_ASC_NODE = 255.7832
ARG_OF_PERICENTER = 250.6439
MEAN_ANOMALY   = 217.5104

EPHEMERIS_TYPE = 0
CLASSIFICATION_TYPE = U
NORAD_CAT_ID   = 15772
ELEMENT_SET_NO = 999
REV_AT_EPOCH   = 10308
BSTAR          = .79747185E-4
MEAN_MOTION_DOT = .129E-5
MEAN_MOTION_DDOT = 0

CCSDS_OMM_VERS = 2.0
CREATION_DATE  = 
ORIGINATOR     = 

OBJECT_NAME    = SL-14 R/B
OBJECT_ID      = 1985-069B
CENTER_NAME    = EARTH
REF_FRAME      = TEME
TIME_SYSTEM    = UTC
MEAN_ELEMENT_THEORY = SGP/SGP4

EPOCH          = 2025-12-20T05:47:45.079008
MEAN_MOTION    = 14.86332639
ECCENTRICITY   = .00203469
INCLINATION    = 82.5273
RA_OF_ASC_NODE = 99.6508
ARG_OF_PERICENTER = 95.4410
MEAN_ANOMALY   = 264.9128

EPHEMERIS_TYPE = 0
CLASSIFICATION_TYPE = U
NORAD_CAT_ID   = 15945
ELEMENT_SET_NO = 999
REV_AT_EPOCH   = 16103
BSTAR          = .45602519E-4
MEAN_MOTION_DOT = .428E-5
MEAN_MOTION_DDOT = 0

CCSDS_OMM_VERS = 2.0
CREATION_DATE  = 
ORIGINATOR     = 

OBJECT_NAME    = SL-16 R/B
OBJECT_ID      = 1985-097B
CENTER_NAME    = EARTH
REF_FRAME      = TEME
TIME_SYSTEM    = UTC
MEAN_ELEMENT_THEORY = SGP/SGP4

EPOCH          = 2025-12-20T04:25:17.667264
MEAN_MOTION    = 14.16587710
ECCENTRICITY   = .00071786
INCLINATION    = 71.0037
RA_OF_ASC_NODE = 307.9300
ARG_OF_PERICENTER = 358.6902
MEAN_ANOMALY   = 13.0966

EPHEMERIS_TYPE = 0
CLASSIFICATION_TYPE = U
NORAD_CAT_ID   = 16182
ELEMENT_SET_NO = 999
REV_AT_EPOCH   = 7597
BSTAR          = .29500733E-4
MEAN_MOTION_DOT = .11E-6
MEAN_MOTION_DDOT = 0

CCSDS_OMM_VERS = 2.0
CREATION_DATE  = 
ORIGINATOR     = 

OBJECT_NAME    = SL-14 R/B
OBJECT_ID      = 1986-006B
CENTER_NAME    = EARTH
REF_FRAME      = TEME
TIME_SYSTEM    = UTC
MEAN_ELEMENT_THEORY = SGP/SGP4

EPOCH          = 2025-12-20T05:43:05.167200
MEAN_MOTION    = 14.86680577
ECCENTRICITY   = .00768247
INCLINATION    = 82.5267
RA_OF_ASC_NODE = 334.4951
ARG_OF_PERICENTER = 174.8644
MEAN_ANOMALY   = 185.3380

EPHEMERIS_TYPE = 0
CLASSIFICATION_TYPE = U
NORAD_CAT_ID   = 16496
ELEMENT_SET_NO = 999
REV_AT_EPOCH   = 13740
BSTAR          = .4452165E-4
MEAN_MOTION_DOT = .444E-5
MEAN_MOTION_DDOT = 0

CCSDS_OMM_VERS = 2.0
CREATION_DATE  = 
ORIGINATOR     = 

OBJECT_NAME    = COSMOS 1743
OBJECT_ID      = 1986-034A
CENTER_NAME    = EARTH
REF_FRAME      = TEME
TIME_SYSTEM    = UTC
MEAN_ELEMENT_THEORY = SGP/SGP4

EPOCH          = 2025-12-19T20:58:37.254720
MEAN_MOTION    = 15.52528309
ECCENTRICITY   = .000484
INCLINATION    = 82.5339
RA_OF_ASC_NODE = 157.1791
ARG_OF_PERICENTER = 222.7186
MEAN_ANOMALY   = 137.3691

EPHEMERIS_TYPE = 0
CLASSIFICATION_TYPE = U
NORAD_CAT_ID   = 16719
ELEMENT_SET_NO = 999
REV_AT_EPOCH   = 16784
BSTAR          = .35122E-3
MEAN_MOTION_DOT = .21598E-3
MEAN_MOTION_DDOT = 0

