SL-3 R/B                
1 13403U 82079B   25354.16765148  .00004873  00000+0  20006-3 0  9996
2 13403  81.1478 286.9044 0027077  75.2498 285.1732 15.23668339365584
SL-14 R/B               
1 13553U 82092B   25354.16312115  .00000337  00000+0  35179-4 0  9998
2 13553  82.5675 215.7695 0019710 201.2212 278.9930 14.86562145317118
SL-3 R/B                
1 13819U 83010B   25354.03253487  .00009943  00000+0  21903-3 0  9997
2 13819  81.1051  99.7165 0016773 325.3229  34.6919 15.43642402345642
SL-3 R/B                
1 14208U 83075B   25354.14781035  .00007211  00000+0  20455-3 0  9995
2 14208  97.6099 350.8805 0023549 149.5393 210.7224 15.36274244317932
COSMOS 1536             
1 14699U 84013A   25354.03564552  .00004754  00000+0  20275-3 0  9992
2 14699  82.5438 186.9280 0014044 198.0928 161.9811 15.22596433260493
SL-14 R/B               
1 14820U 84027B   25353.96314122  .00000371  00000+0  39705-4 0  9990
2 14820  82.5416 319.7817 0016579 234.6897 125.2770 14.85881537235796
SL-8 R/B                
1 15483U 85006B   25354.19555013  .00000193  00000+0  72809-4 0  9990
2 15483  74.0463  47.4177 0019025 337.9785  77.3273 14.37725175142600
SL-12 R/B(2)            
1 15772U 85042D   25354.14156936  .00000129  00000+0  79747-4 0  9994
2 15772  71.1076 255.7832 0037431 250.6439 217.5104 14.21954081103082
SL-14 R/B               
1 15945U 85069B   25354.24149397  .00000428  00000+0  45603-4 0  9995
2 15945  82.5273  99.6508 0020346  95.4410 264.9128 14.86332639161036
SL-16 R/B               
1 16182U 85097B   25354.18423226  .00000011  00000+0  29501-4 0  9996
2 16182  71.0037 307.9300 0007178 358.6902  13.0966 14.16587710 75979
SL-14 R/B               
1 16496U 86006B   25354.23825425  .00000444  00000+0  44522-4 0  9998
2 16496  82.5267 334.4951 0076824 174.8644 185.3380 14.86680577137403
COSMOS 1743             
1 16719U 86034A   25353.87404230  .00021598  00000+0  35122-3 0  9991
2 16719  82.5339 157.1791 0004840 222.7186 137.3691 15.52528309167847
